start=new Date('2022-07-15T00:00:00.000Z').valueOf();
sats=[{"ECCENTRICITY":"0.00019030","RA_OF_ASC_NODE":"1.6665","BSTAR":"0.00339270000000","TIME_SYSTEM":"UTC","LAUNCH_DATE":"2022-05-13","DECAY_DATE":null,"MEAN_ANOMALY":"99.5596","PERIOD":"95.440","SITE":"AFWTR","NORAD_CAT_ID":"52563","MEAN_ELEMENT_THEORY":"SGP4","ARG_OF_PERICENTER":"43.6945","FILE":"3513976","RCS_SIZE":"LARGE","COUNTRY_CODE":"US","GP_ID":"208137783","MEAN_MOTION_DDOT":"0.0000000000000","SEMIMAJOR_AXIS":"6917.994","MEAN_MOTION_DOT":"0.00054066","INCLINATION":"53.2197","PERIAPSIS":"538.543","OBJECT_NAME":"STARLINK-3942","TLE_LINE2":"2 52563  53.2197   1.6665 0001903  43.6945  99.5596 15.08802770  1303","CLASSIFICATION_TYPE":"U","ELEMENT_SET_NO":"999","MEAN_MOTION":"15.08802770","REV_AT_EPOCH":"130","APOAPSIS":"541.176","OBJECT_ID":"2022-051AG","EPOCH":"2022-07-14T22:00:00.999936","CENTER_NAME":"EARTH","TLE_LINE1":"1 52563U 22051AG  22195.91667824  .00054066  00000-0  33927-2 0  9990","EPHEMERIS_TYPE":"0","OBJECT_TYPE":"PAYLOAD","REF_FRAME":"TEME"},{"APOAPSIS":"541.054","TLE_LINE2":"2 52564  53.2198   1.6648 0001755  41.4685 141.8096 15.08808939  1307","CLASSIFICATION_TYPE":"U","MEAN_MOTION":"15.08808939","ELEMENT_SET_NO":"999","REV_AT_EPOCH":"130","TLE_LINE1":"1 52564U 22051AH  22195.91667824  .00056304  00000-0  35307-2 0  9992","EPHEMERIS_TYPE":"0","CENTER_NAME":"EARTH","OBJECT_TYPE":"PAYLOAD","REF_FRAME":"TEME","OBJECT_ID":"2022-051AH","EPOCH":"2022-07-14T22:00:00.999936","MEAN_MOTION_DDOT":"0.0000000000000","COUNTRY_CODE":"US","RCS_SIZE":"LARGE","GP_ID":"208137622","MEAN_MOTION_DOT":"0.00056304","INCLINATION":"53.2198","PERIAPSIS":"538.626","OBJECT_NAME":"STARLINK-3959","SEMIMAJOR_AXIS":"6917.975","MEAN_ANOMALY":"141.8096","DECAY_DATE":null,"ARG_OF_PERICENTER":"41.4685","FILE":"3513976","PERIOD":"95.440","SITE":"AFWTR","NORAD_CAT_ID":"52564","MEAN_ELEMENT_THEORY":"SGP4","RA_OF_ASC_NODE":"1.6648","ECCENTRICITY":"0.00017550","TIME_SYSTEM":"UTC","LAUNCH_DATE":"2022-05-13","BSTAR":"0.00353070000000"},{"MEAN_ANOMALY":"73.6023","DECAY_DATE":null,"FILE":"3513976","ARG_OF_PERICENTER":"43.1899","PERIOD":"93.607","NORAD_CAT_ID":"52565","SITE":"AFWTR","MEAN_ELEMENT_THEORY":"SGP4","ECCENTRICITY":"0.00016230","RA_OF_ASC_NODE":"348.1134","LAUNCH_DATE":"2022-05-13","TIME_SYSTEM":"UTC","BSTAR":"-0.03022800000000","APOAPSIS":"452.090","REV_AT_EPOCH":"130","CLASSIFICATION_TYPE":"U","TLE_LINE2":"2 52565  53.2171 348.1134 0001623  43.1899  73.6023 15.38352983  1306","ELEMENT_SET_NO":"999","MEAN_MOTION":"15.38352983","REF_FRAME":"TEME","TLE_LINE1":"1 52565U 22051AJ  22195.91667824 -.01065691  00000-0 -30228-1 0  9991","CENTER_NAME":"EARTH","EPHEMERIS_TYPE":"0","OBJECT_TYPE":"PAYLOAD","EPOCH":"2022-07-14T22:00:00.999936","OBJECT_ID":"2022-051AJ","MEAN_MOTION_DDOT":"0.0000000000000","GP_ID":"208137317","COUNTRY_CODE":"US","RCS_SIZE":"LARGE","OBJECT_NAME":"STARLINK-3911","PERIAPSIS":"449.873","INCLINATION":"53.2171","MEAN_MOTION_DOT":"-0.01065691","SEMIMAJOR_AXIS":"6829.116"},{"BSTAR":"0.00342510000000","TIME_SYSTEM":"UTC","LAUNCH_DATE":"2022-05-13","RA_OF_ASC_NODE":"1.6464","ECCENTRICITY":"0.00019630","PERIOD":"95.440","SITE":"AFWTR","NORAD_CAT_ID":"52566","MEAN_ELEMENT_THEORY":"SGP4","FILE":"3513976","ARG_OF_PERICENTER":"39.8552","DECAY_DATE":null,"MEAN_ANOMALY":"263.4310","SEMIMAJOR_AXIS":"6917.986","MEAN_MOTION_DOT":"0.00054594","PERIAPSIS":"538.493","INCLINATION":"53.2181","OBJECT_NAME":"STARLINK-3938","COUNTRY_CODE":"US","RCS_SIZE":"LARGE","GP_ID":"208137887","MEAN_MOTION_DDOT":"0.0000000000000","OBJECT_ID":"2022-051AK","EPOCH":"2022-07-14T22:00:00.999936","TLE_LINE1":"1 52566U 22051AK  22195.91667824  .00054594  00000-0  34251-2 0  9990","CENTER_NAME":"EARTH","EPHEMERIS_TYPE":"0","OBJECT_TYPE":"PAYLOAD","REF_FRAME":"TEME","CLASSIFICATION_TYPE":"U","TLE_LINE2":"2 52566  53.2181   1.6464 0001963  39.8552 263.4310 15.08805533  1309","MEAN_MOTION":"15.08805533","ELEMENT_SET_NO":"999","REV_AT_EPOCH":"130","APOAPSIS":"541.209"},{"RA_OF_ASC_NODE":"348.1345","ECCENTRICITY":"0.00014510","TIME_SYSTEM":"UTC","LAUNCH_DATE":"2022-05-13","BSTAR":"-0.02964800000000","MEAN_ANOMALY":"75.6581","DECAY_DATE":null,"ARG_OF_PERICENTER":"53.3113","FILE":"3513976","NORAD_CAT_ID":"52567","SITE":"AFWTR","MEAN_ELEMENT_THEORY":"SGP4","PERIOD":"93.571","MEAN_MOTION_DDOT":"0.0000000000000","COUNTRY_CODE":"US","RCS_SIZE":"LARGE","GP_ID":"208137420","MEAN_MOTION_DOT":"-0.01065701","INCLINATION":"53.2172","PERIAPSIS":"448.244","OBJECT_NAME":"STARLINK-3929","SEMIMAJOR_AXIS":"6827.370","APOAPSIS":"450.225","MEAN_MOTION":"15.38943388","ELEMENT_SET_NO":"999","TLE_LINE2":"2 52567  53.2172 348.1345 0001451  53.3113  75.6581 15.38943388  1300","CLASSIFICATION_TYPE":"U","REV_AT_EPOCH":"130","OBJECT_TYPE":"PAYLOAD","TLE_LINE1":"1 52567U 22051AL  22195.91667824 -.01065701  00000-0 -29648-1 0  9999","CENTER_NAME":"EARTH","EPHEMERIS_TYPE":"0","REF_FRAME":"TEME","OBJECT_ID":"2022-051AL","EPOCH":"2022-07-14T22:00:00.999936"},{"MEAN_ELEMENT_THEORY":"SGP4","SITE":"AFWTR","NORAD_CAT_ID":"52568","PERIOD":"93.518","FILE":"3513976","ARG_OF_PERICENTER":"40.0513","DECAY_DATE":null,"MEAN_ANOMALY":"106.7252","BSTAR":"-0.02879200000000","TIME_SYSTEM":"UTC","LAUNCH_DATE":"2022-05-13","ECCENTRICITY":"0.00017450","RA_OF_ASC_NODE":"348.1643","OBJECT_ID":"2022-051AM","EPOCH":"2022-07-14T22:00:00.999936","OBJECT_TYPE":"PAYLOAD","TLE_LINE1":"1 52568U 22051AM  22195.91667824 -.01065363  00000-0 -28792-1 0  9993","EPHEMERIS_TYPE":"0","CENTER_NAME":"EARTH","REF_FRAME":"TEME","MEAN_MOTION":"15.39817065","ELEMENT_SET_NO":"999","TLE_LINE2":"2 52568  53.2173 348.1643 0001745  40.0513 106.7252 15.39817065  1300","CLASSIFICATION_TYPE":"U","REV_AT_EPOCH":"130","APOAPSIS":"447.843","SEMIMAJOR_AXIS":"6824.787","MEAN_MOTION_DOT":"-0.01065363","PERIAPSIS":"445.461","INCLINATION":"53.2173","OBJECT_NAME":"STARLINK-3930","COUNTRY_CODE":"US","RCS_SIZE":"LARGE","GP_ID":"208137986","MEAN_MOTION_DDOT":"0.0000000000000"},{"SITE":"AFWTR","NORAD_CAT_ID":"52569","MEAN_ELEMENT_THEORY":"SGP4","PERIOD":"93.553","ARG_OF_PERICENTER":"56.1045","FILE":"3513976","DECAY_DATE":null,"MEAN_ANOMALY":"78.7470","BSTAR":"-0.02936200000000","TIME_SYSTEM":"UTC","LAUNCH_DATE":"2022-05-13","RA_OF_ASC_NODE":"348.1449","ECCENTRICITY":"0.00014280","OBJECT_ID":"2022-051AN","EPOCH":"2022-07-14T22:00:00.999936","OBJECT_TYPE":"PAYLOAD","EPHEMERIS_TYPE":"0","TLE_LINE1":"1 52569U 22051AN  22195.91667824 -.01065744  00000-0 -29362-1 0  9991","CENTER_NAME":"EARTH","REF_FRAME":"TEME","MEAN_MOTION":"15.39238617","ELEMENT_SET_NO":"999","TLE_LINE2":"2 52569  53.2172 348.1449 0001428  56.1045  78.7470 15.39238617  1300","CLASSIFICATION_TYPE":"U","REV_AT_EPOCH":"130","APOAPSIS":"449.336","SEMIMAJOR_AXIS":"6826.497","MEAN_MOTION_DOT":"-0.01065744","OBJECT_NAME":"STARLINK-3927","PERIAPSIS":"447.387","INCLINATION":"53.2172","RCS_SIZE":"LARGE","COUNTRY_CODE":"US","GP_ID":"208137682","MEAN_MOTION_DDOT":"0.0000000000000"},{"OBJECT_TYPE":"PAYLOAD","TLE_LINE1":"1 52570U 22051AP  22195.91667824 -.01065360  00000-0 -28517-1 0  9998","CENTER_NAME":"EARTH","EPHEMERIS_TYPE":"0","REF_FRAME":"TEME","OBJECT_ID":"2022-051AP","EPOCH":"2022-07-14T22:00:00.999936","APOAPSIS":"446.960","MEAN_MOTION":"15.40106412","ELEMENT_SET_NO":"999","CLASSIFICATION_TYPE":"U","TLE_LINE2":"2 52570  53.2173 348.1739 0001704  42.0082 110.5323 15.40106412  1308","REV_AT_EPOCH":"130","MEAN_MOTION_DOT":"-0.01065360","INCLINATION":"53.2173","PERIAPSIS":"444.634","OBJECT_NAME":"STARLINK-3924","SEMIMAJOR_AXIS":"6823.932","MEAN_MOTION_DDOT":"0.0000000000000","RCS_SIZE":"LARGE","COUNTRY_CODE":"US","GP_ID":"208137525","FILE":"3513976","ARG_OF_PERICENTER":"42.0082","SITE":"AFWTR","NORAD_CAT_ID":"52570","MEAN_ELEMENT_THEORY":"SGP4","PERIOD":"93.500","MEAN_ANOMALY":"110.5323","DECAY_DATE":null,"TIME_SYSTEM":"UTC","LAUNCH_DATE":"2022-05-13","BSTAR":"-0.02851700000000","ECCENTRICITY":"0.00017040","RA_OF_ASC_NODE":"348.1739"},{"EPOCH":"2022-07-14T22:00:00.999936","OBJECT_ID":"2022-051AQ","REF_FRAME":"TEME","EPHEMERIS_TYPE":"0","TLE_LINE1":"1 52574U 22051AQ  22195.91667824 -.01051733  00000-0 -25614-1 0  9996","CENTER_NAME":"EARTH","OBJECT_TYPE":"PAYLOAD","REV_AT_EPOCH":"130","TLE_LINE2":"2 52574  53.2173 348.0910 0001757  40.4780 140.3181 15.43332905  1301","CLASSIFICATION_TYPE":"U","ELEMENT_SET_NO":"999","MEAN_MOTION":"15.43332905","APOAPSIS":"437.480","SEMIMAJOR_AXIS":"6814.418","PERIAPSIS":"435.086","OBJECT_NAME":"STARLINK-3901","INCLINATION":"53.2173","MEAN_MOTION_DOT":"-0.01051733","GP_ID":"208137888","RCS_SIZE":"LARGE","COUNTRY_CODE":"US","MEAN_MOTION_DDOT":"0.0000000000000","PERIOD":"93.305","MEAN_ELEMENT_THEORY":"SGP4","SITE":"AFWTR","NORAD_CAT_ID":"52574","ARG_OF_PERICENTER":"40.4780","FILE":"3513976","DECAY_DATE":null,"MEAN_ANOMALY":"140.3181","BSTAR":"-0.02561400000000","LAUNCH_DATE":"2022-05-13","TIME_SYSTEM":"UTC","ECCENTRICITY":"0.00017570","RA_OF_ASC_NODE":"348.0910"},{"APOAPSIS":"446.003","REV_AT_EPOCH":"130","CLASSIFICATION_TYPE":"U","TLE_LINE2":"2 52575  53.2173 348.1833 0001555  49.8391 108.3332 15.40395889  1303","MEAN_MOTION":"15.40395889","ELEMENT_SET_NO":"999","REF_FRAME":"TEME","TLE_LINE1":"1 52575U 22051AR  22195.91667824 -.01065541  00000-0 -28250-1 0  9998","EPHEMERIS_TYPE":"0","CENTER_NAME":"EARTH","OBJECT_TYPE":"PAYLOAD","EPOCH":"2022-07-14T22:00:00.999936","OBJECT_ID":"2022-051AR","MEAN_MOTION_DDOT":"0.0000000000000","GP_ID":"208137421","COUNTRY_CODE":"US","RCS_SIZE":"LARGE","PERIAPSIS":"443.881","OBJECT_NAME":"STARLINK-3920","INCLINATION":"53.2173","MEAN_MOTION_DOT":"-0.01065541","SEMIMAJOR_AXIS":"6823.077","MEAN_ANOMALY":"108.3332","DECAY_DATE":null,"FILE":"3513976","ARG_OF_PERICENTER":"49.8391","PERIOD":"93.482","NORAD_CAT_ID":"52575","SITE":"AFWTR","MEAN_ELEMENT_THEORY":"SGP4","RA_OF_ASC_NODE":"348.1833","ECCENTRICITY":"0.00015550","LAUNCH_DATE":"2022-05-13","TIME_SYSTEM":"UTC","BSTAR":"-0.02825000000000"}];
